start=new Date('2022-11-19T00:00:00.000Z').valueOf();
sats=[{"SEMIMAJOR_AXIS":"6917.875","NORAD_CAT_ID":"49421","ECCENTRICITY":"0.00025420","OBJECT_NAME":"STARLINK-3112","REV_AT_EPOCH":"5638","RA_OF_ASC_NODE":"248.2947","CENTER_NAME":"EARTH","COUNTRY_CODE":"US","TLE_LINE1":"1 49421U 21104P   22322.52710055  .00000439  00000-0  45699-4 0  9997","MEAN_ELEMENT_THEORY":"SGP4","LAUNCH_DATE":"2021-11-13","MEAN_MOTION_DDOT":"0.0000000000000","DECAY_DATE":null,"MEAN_MOTION":"15.08841709","EPOCH":"2022-11-18T12:39:01.487520","OBJECT_TYPE":"PAYLOAD","GP_ID":"218136456","TLE_LINE2":"2 49421  53.2175 248.2947 0002542  26.9750 333.1374 15.08841709 56382","INCLINATION":"53.2175","TIME_SYSTEM":"UTC","ARG_OF_PERICENTER":"26.9750","OBJECT_ID":"2021-104P","REF_FRAME":"TEME","MEAN_ANOMALY":"333.1374","PERIAPSIS":"537.982","ELEMENT_SET_NO":"999","CLASSIFICATION_TYPE":"U","PERIOD":"95.437","FILE":"3662515","SITE":"AFETR","APOAPSIS":"541.499","RCS_SIZE":"LARGE","BSTAR":"0.00004569900000","MEAN_MOTION_DOT":"0.00000439","EPHEMERIS_TYPE":"0"},{"LAUNCH_DATE":"2021-11-13","TLE_LINE1":"1 49422U 21104Q   22322.20693280 -.00000228  00000-0  38017-5 0  9997","COUNTRY_CODE":"US","MEAN_ELEMENT_THEORY":"SGP4","RA_OF_ASC_NODE":"249.7355","REV_AT_EPOCH":"5633","CENTER_NAME":"EARTH","SEMIMAJOR_AXIS":"6917.891","NORAD_CAT_ID":"49422","ECCENTRICITY":"0.00025240","OBJECT_NAME":"STARLINK-3161","OBJECT_TYPE":"PAYLOAD","GP_ID":"218137207","EPOCH":"2022-11-18T04:57:58.993920","DECAY_DATE":null,"MEAN_MOTION":"15.08836424","MEAN_MOTION_DDOT":"0.0000000000000","REF_FRAME":"TEME","PERIAPSIS":"538.010","MEAN_ANOMALY":"325.8178","OBJECT_ID":"2021-104Q","ARG_OF_PERICENTER":"34.2977","TLE_LINE2":"2 49422  53.2167 249.7355 0002524  34.2977 325.8178 15.08836424 56339","TIME_SYSTEM":"UTC","INCLINATION":"53.2167","EPHEMERIS_TYPE":"0","MEAN_MOTION_DOT":"-0.00000228","RCS_SIZE":"LARGE","BSTAR":"0.00000380170000","SITE":"AFETR","APOAPSIS":"541.502","PERIOD":"95.438","CLASSIFICATION_TYPE":"U","ELEMENT_SET_NO":"999","FILE":"3662515"},{"MEAN_ELEMENT_THEORY":"SGP4","COUNTRY_CODE":"US","TLE_LINE1":"1 49423U 21104R   22322.51974370  .00002460  00000-0  17263-3 0  9991","LAUNCH_DATE":"2021-11-13","SEMIMAJOR_AXIS":"6917.893","OBJECT_NAME":"STARLINK-3149","NORAD_CAT_ID":"49423","ECCENTRICITY":"0.00023260","CENTER_NAME":"EARTH","RA_OF_ASC_NODE":"248.3300","REV_AT_EPOCH":"5746","MEAN_MOTION":"15.08835921","DECAY_DATE":null,"EPOCH":"2022-11-18T12:28:25.855680","GP_ID":"218142376","OBJECT_TYPE":"PAYLOAD","MEAN_MOTION_DDOT":"0.0000000000000","OBJECT_ID":"2021-104R","MEAN_ANOMALY":"319.2837","PERIAPSIS":"538.149","REF_FRAME":"TEME","INCLINATION":"53.2180","TIME_SYSTEM":"UTC","TLE_LINE2":"2 49423  53.2180 248.3300 0002326  40.8329 319.2837 15.08835921 57469","ARG_OF_PERICENTER":"40.8329","BSTAR":"0.00017263000000","RCS_SIZE":"LARGE","MEAN_MOTION_DOT":"0.00002460","EPHEMERIS_TYPE":"0","FILE":"3662646","CLASSIFICATION_TYPE":"U","ELEMENT_SET_NO":"999","PERIOD":"95.438","APOAPSIS":"541.367","SITE":"AFETR"},{"CENTER_NAME":"EARTH","RA_OF_ASC_NODE":"249.7611","REV_AT_EPOCH":"5633","SEMIMAJOR_AXIS":"6917.860","NORAD_CAT_ID":"49424","ECCENTRICITY":"0.00024570","OBJECT_NAME":"STARLINK-3135","LAUNCH_DATE":"2021-11-13","MEAN_ELEMENT_THEORY":"SGP4","COUNTRY_CODE":"US","TLE_LINE1":"1 49424U 21104S   22322.19955980  .00003221  00000-0  22035-3 0  9991","MEAN_MOTION_DDOT":"0.0000000000000","EPOCH":"2022-11-18T04:47:21.966720","GP_ID":"218136707","OBJECT_TYPE":"PAYLOAD","MEAN_MOTION":"15.08846636","DECAY_DATE":null,"ARG_OF_PERICENTER":"41.0452","INCLINATION":"53.2177","TIME_SYSTEM":"UTC","TLE_LINE2":"2 49424  53.2177 249.7611 0002457  41.0452 319.0724 15.08846636 56334","MEAN_ANOMALY":"319.0724","PERIAPSIS":"538.025","REF_FRAME":"TEME","OBJECT_ID":"2021-104S","APOAPSIS":"541.425","SITE":"AFETR","FILE":"3662515","ELEMENT_SET_NO":"999","CLASSIFICATION_TYPE":"U","PERIOD":"95.437","EPHEMERIS_TYPE":"0","MEAN_MOTION_DOT":"0.00003221","RCS_SIZE":"LARGE","BSTAR":"0.00022035000000"},{"TLE_LINE1":"1 49425U 21104T   22322.51605285  .00000503  00000-0  49733-4 0  9993","COUNTRY_CODE":"US","MEAN_ELEMENT_THEORY":"SGP4","LAUNCH_DATE":"2021-11-13","ECCENTRICITY":"0.00031050","SEMIMAJOR_AXIS":"6917.888","NORAD_CAT_ID":"49425","OBJECT_NAME":"STARLINK-3139","REV_AT_EPOCH":"5639","RA_OF_ASC_NODE":"248.3423","CENTER_NAME":"EARTH","DECAY_DATE":null,"MEAN_MOTION":"15.08837364","OBJECT_TYPE":"PAYLOAD","GP_ID":"218136956","EPOCH":"2022-11-18T12:23:06.966240","MEAN_MOTION_DDOT":"0.0000000000000","OBJECT_ID":"2021-104T","REF_FRAME":"TEME","PERIAPSIS":"537.605","MEAN_ANOMALY":"334.0771","TLE_LINE2":"2 49425  53.2169 248.3423 0003105  26.0377 334.0771 15.08837364 56395","TIME_SYSTEM":"UTC","INCLINATION":"53.2169","ARG_OF_PERICENTER":"26.0377","BSTAR":"0.00004973300000","RCS_SIZE":"LARGE","MEAN_MOTION_DOT":"0.00000503","EPHEMERIS_TYPE":"0","PERIOD":"95.438","ELEMENT_SET_NO":"999","CLASSIFICATION_TYPE":"U","FILE":"3662515","SITE":"AFETR","APOAPSIS":"541.901"},{"OBJECT_ID":"2021-104U","REF_FRAME":"TEME","MEAN_ANOMALY":"323.7347","PERIAPSIS":"538.111","TLE_LINE2":"2 49426  53.2155 249.7994 0002360  36.3805 323.7347 15.08840567 56338","INCLINATION":"53.2155","TIME_SYSTEM":"UTC","ARG_OF_PERICENTER":"36.3805","BSTAR":"0.00004824900000","RCS_SIZE":"LARGE","EPHEMERIS_TYPE":"0","MEAN_MOTION_DOT":"0.00000480","ELEMENT_SET_NO":"999","CLASSIFICATION_TYPE":"U","PERIOD":"95.438","FILE":"3662515","SITE":"AFETR","APOAPSIS":"541.376","COUNTRY_CODE":"US","TLE_LINE1":"1 49426U 21104U   22322.19221221  .00000480  00000-0  48249-4 0  9997","MEAN_ELEMENT_THEORY":"SGP4","LAUNCH_DATE":"2021-11-13","OBJECT_NAME":"STARLINK-3114","SEMIMAJOR_AXIS":"6917.879","NORAD_CAT_ID":"49426","ECCENTRICITY":"0.00023600","RA_OF_ASC_NODE":"249.7994","REV_AT_EPOCH":"5633","CENTER_NAME":"EARTH","DECAY_DATE":null,"MEAN_MOTION":"15.08840567","EPOCH":"2022-11-18T04:36:47.134944","GP_ID":"218137708","OBJECT_TYPE":"PAYLOAD","MEAN_MOTION_DDOT":"0.0000000000000"},{"RCS_SIZE":"LARGE","BSTAR":"0.00011864000000","MEAN_MOTION_DOT":"0.00001600","EPHEMERIS_TYPE":"0","PERIOD":"95.438","CLASSIFICATION_TYPE":"U","ELEMENT_SET_NO":"999","FILE":"3662653","SITE":"AFETR","APOAPSIS":"541.688","OBJECT_ID":"2021-104V","REF_FRAME":"TEME","PERIAPSIS":"537.801","MEAN_ANOMALY":"328.6318","TLE_LINE2":"2 49427  53.2168 248.3642 0002809  31.4842 328.6318 15.08840283 57487","TIME_SYSTEM":"UTC","INCLINATION":"53.2168","ARG_OF_PERICENTER":"31.4842","DECAY_DATE":null,"MEAN_MOTION":"15.08840283","GP_ID":"218142705","OBJECT_TYPE":"PAYLOAD","EPOCH":"2022-11-18T12:17:49.485120","MEAN_MOTION_DDOT":"0.0000000000000","TLE_LINE1":"1 49427U 21104V   22322.51237830  .00001600  00000-0  11864-3 0  9994","COUNTRY_CODE":"US","MEAN_ELEMENT_THEORY":"SGP4","LAUNCH_DATE":"2021-11-13","NORAD_CAT_ID":"49427","SEMIMAJOR_AXIS":"6917.880","OBJECT_NAME":"STARLINK-3131","ECCENTRICITY":"0.00028090","REV_AT_EPOCH":"5748","RA_OF_ASC_NODE":"248.3642","CENTER_NAME":"EARTH"},{"MEAN_MOTION_DDOT":"0.0000000000000","OBJECT_TYPE":"PAYLOAD","GP_ID":"218166648","EPOCH":"2022-11-18T20:00:14.023296","DECAY_DATE":null,"MEAN_MOTION":"15.08832831","RA_OF_ASC_NODE":"246.9185","REV_AT_EPOCH":"5644","CENTER_NAME":"EARTH","SEMIMAJOR_AXIS":"6917.902","NORAD_CAT_ID":"49428","ECCENTRICITY":"0.00026300","OBJECT_NAME":"STARLINK-3121","LAUNCH_DATE":"2021-11-13","TLE_LINE1":"1 49428U 21104W   22322.83349564  .00001719  00000-0  12612-3 0  9991","COUNTRY_CODE":"US","MEAN_ELEMENT_THEORY":"SGP4","SITE":"AFETR","APOAPSIS":"541.587","PERIOD":"95.438","CLASSIFICATION_TYPE":"U","ELEMENT_SET_NO":"999","FILE":"3662753","EPHEMERIS_TYPE":"0","MEAN_MOTION_DOT":"0.00001719","RCS_SIZE":"LARGE","BSTAR":"0.00012612000000","ARG_OF_PERICENTER":"32.7253","TLE_LINE2":"2 49428  53.2181 246.9185 0002630  32.7253 327.3902 15.08832831 56441","TIME_SYSTEM":"UTC","INCLINATION":"53.2181","REF_FRAME":"TEME","PERIAPSIS":"537.948","MEAN_ANOMALY":"327.3902","OBJECT_ID":"2021-104W"},{"MEAN_MOTION_DDOT":"0.0000000000000","GP_ID":"218136457","OBJECT_TYPE":"PAYLOAD","EPOCH":"2022-11-18T05:50:58.671168","MEAN_MOTION":"15.08838524","DECAY_DATE":null,"CENTER_NAME":"EARTH","RA_OF_ASC_NODE":"249.5711","REV_AT_EPOCH":"5635","ECCENTRICITY":"0.00020330","SEMIMAJOR_AXIS":"6917.885","NORAD_CAT_ID":"49430","OBJECT_NAME":"STARLINK-3138","LAUNCH_DATE":"2021-11-13","MEAN_ELEMENT_THEORY":"SGP4","TLE_LINE1":"1 49430U 21104Y   22322.24373462  .00001080  00000-0  85982-4 0  9995","COUNTRY_CODE":"US","APOAPSIS":"541.156","SITE":"AFETR","FILE":"3662515","PERIOD":"95.438","ELEMENT_SET_NO":"999","CLASSIFICATION_TYPE":"U","MEAN_MOTION_DOT":"0.00001080","EPHEMERIS_TYPE":"0","BSTAR":"0.00008598200000","RCS_SIZE":"LARGE","ARG_OF_PERICENTER":"37.7031","TIME_SYSTEM":"UTC","INCLINATION":"53.2177","TLE_LINE2":"2 49430  53.2177 249.5711 0002033  37.7031 322.4103 15.08838524 56353","PERIAPSIS":"538.343","MEAN_ANOMALY":"322.4103","REF_FRAME":"TEME","OBJECT_ID":"2021-104Y"},{"ECCENTRICITY":"0.00022010","SEMIMAJOR_AXIS":"6917.881","NORAD_CAT_ID":"49431","OBJECT_NAME":"STARLINK-3153","RA_OF_ASC_NODE":"249.7415","REV_AT_EPOCH":"5634","CENTER_NAME":"EARTH","TLE_LINE1":"1 49431U 21104Z   22322.20421218  .00000975  00000-0  79356-4 0  9995","COUNTRY_CODE":"US","MEAN_ELEMENT_THEORY":"SGP4","LAUNCH_DATE":"2021-11-13","MEAN_MOTION_DDOT":"0.0000000000000","DECAY_DATE":null,"MEAN_MOTION":"15.08839766","GP_ID":"218137208","OBJECT_TYPE":"PAYLOAD","EPOCH":"2022-11-18T04:54:03.932352","TLE_LINE2":"2 49431  53.2187 249.7415 0002201  40.8721 319.2436 15.08839766 56347","TIME_SYSTEM":"UTC","INCLINATION":"53.2187","ARG_OF_PERICENTER":"40.8721","OBJECT_ID":"2021-104Z","REF_FRAME":"TEME","PERIAPSIS":"538.223","MEAN_ANOMALY":"319.2436","PERIOD":"95.438","CLASSIFICATION_TYPE":"U","ELEMENT_SET_NO":"999","FILE":"3662515","SITE":"AFETR","APOAPSIS":"541.269","RCS_SIZE":"LARGE","BSTAR":"0.00007935600000","MEAN_MOTION_DOT":"0.00000975","EPHEMERIS_TYPE":"0"}];
